<?xml version="1.0" encoding="UTF-8"?>
<ndm xmlns:xsi="http://www.w3.org/2001/XMLSchema-instance" xsi:noNamespaceSchemaLocation="https://sanaregistry.org/r/ndmxml_unqualified/ndmxml-2.0.0-master-2.0.xsd">
<omm id="CCSDS_OMM_VERS" version="2.0">
<header><CREATION_DATE/><ORIGINATOR/></header><body><segment><metadata><OBJECT_NAME>KUIPER-00089</OBJECT_NAME><OBJECT_ID>2025-151U</OBJECT_ID><CENTER_NAME>EARTH</CENTER_NAME><REF_FRAME>TEME</REF_FRAME><TIME_SYSTEM>UTC</TIME_SYSTEM><MEAN_ELEMENT_THEORY>SGP4</MEAN_ELEMENT_THEORY></metadata><data><meanElements><EPOCH>2025-12-11T14:46:54.196320</EPOCH><MEAN_MOTION>14.79943070</MEAN_MOTION><ECCENTRICITY>.00020546</ECCENTRICITY><INCLINATION>51.9016</INCLINATION><RA_OF_ASC_NODE>315.0478</RA_OF_ASC_NODE><ARG_OF_PERICENTER>49.3670</ARG_OF_PERICENTER><MEAN_ANOMALY>310.7471</MEAN_ANOMALY></meanElements><tleParameters><EPHEMERIS_TYPE>0</EPHEMERIS_TYPE><CLASSIFICATION_TYPE>U</CLASSIFICATION_TYPE><NORAD_CAT_ID>64834</NORAD_CAT_ID><ELEMENT_SET_NO>999</ELEMENT_SET_NO><REV_AT_EPOCH>2247</REV_AT_EPOCH><BSTAR>.64994762E-3</BSTAR><MEAN_MOTION_DOT>.4738E-4</MEAN_MOTION_DOT><MEAN_MOTION_DDOT>0</MEAN_MOTION_DDOT></tleParameters></data></segment></body></omm>
<omm id="CCSDS_OMM_VERS" version="2.0">
<header><CREATION_DATE/><ORIGINATOR/></header><body><segment><metadata><OBJECT_NAME>KUIPER-00090</OBJECT_NAME><OBJECT_ID>2025-151V</OBJECT_ID><CENTER_NAME>EARTH</CENTER_NAME><REF_FRAME>TEME</REF_FRAME><TIME_SYSTEM>UTC</TIME_SYSTEM><MEAN_ELEMENT_THEORY>SGP4</MEAN_ELEMENT_THEORY></metadata><data><meanElements><EPOCH>2025-12-10T20:46:07.631904</EPOCH><MEAN_MOTION>14.78427964</MEAN_MOTION><ECCENTRICITY>.0005421</ECCENTRICITY><INCLINATION>51.8994</INCLINATION><RA_OF_ASC_NODE>310.0586</RA_OF_ASC_NODE><ARG_OF_PERICENTER>72.0810</ARG_OF_PERICENTER><MEAN_ANOMALY>288.0742</MEAN_ANOMALY></meanElements><tleParameters><EPHEMERIS_TYPE>0</EPHEMERIS_TYPE><CLASSIFICATION_TYPE>U</CLASSIFICATION_TYPE><NORAD_CAT_ID>64835</NORAD_CAT_ID><ELEMENT_SET_NO>999</ELEMENT_SET_NO><REV_AT_EPOCH>2247</REV_AT_EPOCH><BSTAR>-.60972E-3</BSTAR><MEAN_MOTION_DOT>-.4703E-4</MEAN_MOTION_DOT><MEAN_MOTION_DDOT>0</MEAN_MOTION_DDOT></tleParameters></data></segment></body></omm>
<omm id="CCSDS_OMM_VERS" version="2.0">
<header><CREATION_DATE/><ORIGINATOR/></header><body><segment><metadata><OBJECT_NAME>KUIPER-00091</OBJECT_NAME><OBJECT_ID>2025-151W</OBJECT_ID><CENTER_NAME>EARTH</CENTER_NAME><REF_FRAME>TEME</REF_FRAME><TIME_SYSTEM>UTC</TIME_SYSTEM><MEAN_ELEMENT_THEORY>SGP4</MEAN_ELEMENT_THEORY></metadata><data><meanElements><EPOCH>2025-12-11T14:50:47.614560</EPOCH><MEAN_MOTION>14.79959292</MEAN_MOTION><ECCENTRICITY>.00087863</ECCENTRICITY><INCLINATION>51.9016</INCLINATION><RA_OF_ASC_NODE>312.5426</RA_OF_ASC_NODE><ARG_OF_PERICENTER>4.0518</ARG_OF_PERICENTER><MEAN_ANOMALY>356.0514</MEAN_ANOMALY></meanElements><tleParameters><EPHEMERIS_TYPE>0</EPHEMERIS_TYPE><CLASSIFICATION_TYPE>U</CLASSIFICATION_TYPE><NORAD_CAT_ID>64836</NORAD_CAT_ID><ELEMENT_SET_NO>999</ELEMENT_SET_NO><REV_AT_EPOCH>2250</REV_AT_EPOCH><BSTAR>.95956023E-3</BSTAR><MEAN_MOTION_DOT>.7109E-4</MEAN_MOTION_DOT><MEAN_MOTION_DDOT>0</MEAN_MOTION_DDOT></tleParameters></data></segment></body></omm>
<omm id="CCSDS_OMM_VERS" version="2.0">
<header><CREATION_DATE/><ORIGINATOR/></header><body><segment><metadata><OBJECT_NAME>KUIPER-00092</OBJECT_NAME><OBJECT_ID>2025-151X</OBJECT_ID><CENTER_NAME>EARTH</CENTER_NAME><REF_FRAME>TEME</REF_FRAME><TIME_SYSTEM>UTC</TIME_SYSTEM><MEAN_ELEMENT_THEORY>SGP4</MEAN_ELEMENT_THEORY></metadata><data><meanElements><EPOCH>2025-12-11T09:45:24.790752</EPOCH><MEAN_MOTION>14.80164499</MEAN_MOTION><ECCENTRICITY>.00064633</ECCENTRICITY><INCLINATION>51.9021</INCLINATION><RA_OF_ASC_NODE>320.9625</RA_OF_ASC_NODE><ARG_OF_PERICENTER>313.3829</ARG_OF_PERICENTER><MEAN_ANOMALY>46.6594</MEAN_ANOMALY></meanElements><tleParameters><EPHEMERIS_TYPE>0</EPHEMERIS_TYPE><CLASSIFICATION_TYPE>U</CLASSIFICATION_TYPE><NORAD_CAT_ID>64837</NORAD_CAT_ID><ELEMENT_SET_NO>999</ELEMENT_SET_NO><REV_AT_EPOCH>2358</REV_AT_EPOCH><BSTAR>.10817492E-2</BSTAR><MEAN_MOTION_DOT>.8082E-4</MEAN_MOTION_DOT><MEAN_MOTION_DDOT>0</MEAN_MOTION_DDOT></tleParameters></data></segment></body></omm>
<omm id="CCSDS_OMM_VERS" version="2.0">
<header><CREATION_DATE/><ORIGINATOR/></header><body><segment><metadata><OBJECT_NAME>KUIPER-00093</OBJECT_NAME><OBJECT_ID>2025-151Y</OBJECT_ID><CENTER_NAME>EARTH</CENTER_NAME><REF_FRAME>TEME</REF_FRAME><TIME_SYSTEM>UTC</TIME_SYSTEM><MEAN_ELEMENT_THEORY>SGP4</MEAN_ELEMENT_THEORY></metadata><data><meanElements><EPOCH>2025-12-11T08:06:18.144864</EPOCH><MEAN_MOTION>14.79899658</MEAN_MOTION><ECCENTRICITY>.00143735</ECCENTRICITY><INCLINATION>51.9011</INCLINATION><RA_OF_ASC_NODE>323.7686</RA_OF_ASC_NODE><ARG_OF_PERICENTER>317.9410</ARG_OF_PERICENTER><MEAN_ANOMALY>42.0448</MEAN_ANOMALY></meanElements><tleParameters><EPHEMERIS_TYPE>0</EPHEMERIS_TYPE><CLASSIFICATION_TYPE>U</CLASSIFICATION_TYPE><NORAD_CAT_ID>64838</NORAD_CAT_ID><ELEMENT_SET_NO>999</ELEMENT_SET_NO><REV_AT_EPOCH>2232</REV_AT_EPOCH><BSTAR>.134476E-2</BSTAR><MEAN_MOTION_DOT>.10052E-3</MEAN_MOTION_DOT><MEAN_MOTION_DDOT>0</MEAN_MOTION_DDOT></tleParameters></data></segment></body></omm>
<omm id="CCSDS_OMM_VERS" version="2.0">
<header><CREATION_DATE/><ORIGINATOR/></header><body><segment><metadata><OBJECT_NAME>KUIPER-00094</OBJECT_NAME><OBJECT_ID>2025-151Z</OBJECT_ID><CENTER_NAME>EARTH</CENTER_NAME><REF_FRAME>TEME</REF_FRAME><TIME_SYSTEM>UTC</TIME_SYSTEM><MEAN_ELEMENT_THEORY>SGP4</MEAN_ELEMENT_THEORY></metadata><data><meanElements><EPOCH>2025-12-11T14:15:53.234496</EPOCH><MEAN_MOTION>15.04685671</MEAN_MOTION><ECCENTRICITY>.00045395</ECCENTRICITY><INCLINATION>51.8908</INCLINATION><RA_OF_ASC_NODE>307.5849</RA_OF_ASC_NODE><ARG_OF_PERICENTER>353.2693</ARG_OF_PERICENTER><MEAN_ANOMALY>6.8219</MEAN_ANOMALY></meanElements><tleParameters><EPHEMERIS_TYPE>0</EPHEMERIS_TYPE><CLASSIFICATION_TYPE>U</CLASSIFICATION_TYPE><NORAD_CAT_ID>64839</NORAD_CAT_ID><ELEMENT_SET_NO>999</ELEMENT_SET_NO><REV_AT_EPOCH>2257</REV_AT_EPOCH><BSTAR>.12389555E-2</BSTAR><MEAN_MOTION_DOT>.17403E-3</MEAN_MOTION_DOT><MEAN_MOTION_DDOT>0</MEAN_MOTION_DDOT></tleParameters></data></segment></body></omm>
<omm id="CCSDS_OMM_VERS" version="2.0">
<header><CREATION_DATE/><ORIGINATOR/></header><body><segment><metadata><OBJECT_NAME>KUIPER-00081</OBJECT_NAME><OBJECT_ID>2025-171A</OBJECT_ID><CENTER_NAME>EARTH</CENTER_NAME><REF_FRAME>TEME</REF_FRAME><TIME_SYSTEM>UTC</TIME_SYSTEM><MEAN_ELEMENT_THEORY>SGP4</MEAN_ELEMENT_THEORY></metadata><data><meanElements><EPOCH>2025-12-11T16:00:01.999584</EPOCH><MEAN_MOTION>15.01457551</MEAN_MOTION><ECCENTRICITY>.00035837</ECCENTRICITY><INCLINATION>51.8904</INCLINATION><RA_OF_ASC_NODE>179.0538</RA_OF_ASC_NODE><ARG_OF_PERICENTER>219.0315</ARG_OF_PERICENTER><MEAN_ANOMALY>306.0376</MEAN_ANOMALY></meanElements><tleParameters><EPHEMERIS_TYPE>0</EPHEMERIS_TYPE><CLASSIFICATION_TYPE>U</CLASSIFICATION_TYPE><NORAD_CAT_ID>65132</NORAD_CAT_ID><ELEMENT_SET_NO>999</ELEMENT_SET_NO><REV_AT_EPOCH>515</REV_AT_EPOCH><BSTAR>-.14378237E-2</BSTAR><MEAN_MOTION_DOT>-.19005E-3</MEAN_MOTION_DOT><MEAN_MOTION_DDOT>0</MEAN_MOTION_DDOT></tleParameters></data></segment></body></omm>
<omm id="CCSDS_OMM_VERS" version="2.0">
<header><CREATION_DATE/><ORIGINATOR/></header><body><segment><metadata><OBJECT_NAME>KUIPER-00088</OBJECT_NAME><OBJECT_ID>2025-171B</OBJECT_ID><CENTER_NAME>EARTH</CENTER_NAME><REF_FRAME>TEME</REF_FRAME><TIME_SYSTEM>UTC</TIME_SYSTEM><MEAN_ELEMENT_THEORY>SGP4</MEAN_ELEMENT_THEORY></metadata><data><meanElements><EPOCH>2025-12-10T23:28:56.869536</EPOCH><MEAN_MOTION>14.76717718</MEAN_MOTION><ECCENTRICITY>.00081154</ECCENTRICITY><INCLINATION>51.8979</INCLINATION><RA_OF_ASC_NODE>197.9616</RA_OF_ASC_NODE><ARG_OF_PERICENTER>182.4499</ARG_OF_PERICENTER><MEAN_ANOMALY>177.6423</MEAN_ANOMALY></meanElements><tleParameters><EPHEMERIS_TYPE>0</EPHEMERIS_TYPE><CLASSIFICATION_TYPE>U</CLASSIFICATION_TYPE><NORAD_CAT_ID>65133</NORAD_CAT_ID><ELEMENT_SET_NO>999</ELEMENT_SET_NO><REV_AT_EPOCH>1965</REV_AT_EPOCH><BSTAR>.52047163E-3</BSTAR><MEAN_MOTION_DOT>.3464E-4</MEAN_MOTION_DOT><MEAN_MOTION_DDOT>0</MEAN_MOTION_DDOT></tleParameters></data></segment></body></omm>

</ndm>
