KUIPER-00089            
1 64834U 25151U   25345.61590505  .00004738  00000+0  64995-3 0  9996
2 64834  51.9016 315.0478 0002054  49.3670 310.7471 14.79943070 22479
KUIPER-00090            
1 64835U 25151V   25344.86536611 -.00004703  00000+0 -60972-3 0  9996
2 64835  51.8994 310.0586 0005421  72.0810 288.0742 14.78427964 22475
KUIPER-00091            
1 64836U 25151W   25345.61860665  .00007109  00000+0  95956-3 0  9991
2 64836  51.9016 312.5426 0008786   4.0518 356.0514 14.79959292 22501
KUIPER-00092            
1 64837U 25151X   25345.40653693  .00008082  00000+0  10817-2 0  9993
2 64837  51.9021 320.9625 0006463 313.3829  46.6594 14.80164499 23581
KUIPER-00093            
1 64838U 25151Y   25345.33771001  .00010052  00000+0  13448-2 0  9993
2 64838  51.9011 323.7686 0014373 317.9410  42.0448 14.79899658 22323
KUIPER-00094            
1 64839U 25151Z   25345.59436614  .00017403  00000+0  12390-2 0  9992
2 64839  51.8908 307.5849 0004539 353.2693   6.8219 15.04685671 22576
KUIPER-00081            
1 65132U 25171A   25345.66668981 -.00019005  00000+0 -14378-2 0  9993
2 65132  51.8904 179.0538 0003583 219.0315 306.0376 15.01457551  5159
KUIPER-00088            
1 65133U 25171B   25344.97843599  .00003464  00000+0  52047-3 0  9993
2 65133  51.8979 197.9616 0008115 182.4499 177.6423 14.76717718 19650
